{
  "links" : {
    "next" : "https://api.nasa.gov/neo/rest/v1/feed?start_date=2001-04-09&end_date=2001-04-09&detailed=true&api_key=t0TVs3DtDT2H8Oy2Zy8m2eVrNsAVKAexjcZXUckd",
    "prev" : "https://api.nasa.gov/neo/rest/v1/feed?start_date=2001-04-07&end_date=2001-04-07&detailed=true&api_key=t0TVs3DtDT2H8Oy2Zy8m2eVrNsAVKAexjcZXUckd",
    "self" : "https://api.nasa.gov/neo/rest/v1/feed?start_date=2001-04-08&end_date=2001-04-08&detailed=true&api_key=t0TVs3DtDT2H8Oy2Zy8m2eVrNsAVKAexjcZXUckd"
  },
  "element_count" : 6,
  "near_earth_objects" : {
    "2001-04-08" : [ {
      "links" : {
        "self" : "https://api.nasa.gov/neo/rest/v1/neo/3634275?api_key=t0TVs3DtDT2H8Oy2Zy8m2eVrNsAVKAexjcZXUckd"
      },
      "neo_reference_id" : "3634275",
      "name" : "(2013 GF23)",
      "nasa_jpl_url" : "http://ssd.jpl.nasa.gov/sbdb.cgi?sstr=3634275",
      "absolute_magnitude_h" : 23.7,
      "estimated_diameter" : {
        "kilometers" : {
          "estimated_diameter_min" : 0.0483676488,
          "estimated_diameter_max" : 0.1081533507
        },
        "meters" : {
          "estimated_diameter_min" : 48.3676488219,
          "estimated_diameter_max" : 108.1533506775
        },
        "miles" : {
          "estimated_diameter_min" : 0.0300542543,
          "estimated_diameter_max" : 0.0672033557
        },
        "feet" : {
          "estimated_diameter_min" : 158.6865169607,
          "estimated_diameter_max" : 354.8338390368
        }
      },
      "is_potentially_hazardous_asteroid" : false,
      "close_approach_data" : [ {
        "close_approach_date" : "2001-04-08",
        "epoch_date_close_approach" : 986713200000,
        "relative_velocity" : {
          "kilometers_per_second" : "24.9957680534",
          "kilometers_per_hour" : "89984.7649921072",
          "miles_per_hour" : "55913.0335585679"
        },
        "miss_distance" : {
          "astronomical" : "0.474317325",
          "lunar" : "184.5094299316",
          "kilometers" : "70956864",
          "miles" : "44090548"
        },
        "orbiting_body" : "Earth"
      } ],
      "orbital_data" : {
        "orbit_id" : "7",
        "orbit_determination_date" : "2017-04-06 08:46:15",
        "orbit_uncertainty" : "7",
        "minimum_orbit_intersection" : ".0804213",
        "jupiter_tisserand_invariant" : "6.750",
        "epoch_osculation" : "2458000.5",
        "eccentricity" : ".3214206180139831",
        "semi_major_axis" : ".8572412179731042",
        "inclination" : "27.79092219496523",
        "ascending_node_longitude" : "197.7367640124533",
        "orbital_period" : "289.903189772581",
        "perihelion_distance" : ".5817062159051294",
        "perihelion_argument" : "204.3703577675743",
        "aphelion_distance" : "1.132776220041079",
        "perihelion_time" : "2458019.651198998713",
        "mean_anomaly" : "336.2181587413888",
        "mean_motion" : "1.241793856364283",
        "equinox" : "J2000"
      }
    }, {
      "links" : {
        "self" : "https://api.nasa.gov/neo/rest/v1/neo/3648863?api_key=t0TVs3DtDT2H8Oy2Zy8m2eVrNsAVKAexjcZXUckd"
      },
      "neo_reference_id" : "3648863",
      "name" : "(2013 TS5)",
      "nasa_jpl_url" : "http://ssd.jpl.nasa.gov/sbdb.cgi?sstr=3648863",
      "absolute_magnitude_h" : 19.2,
      "estimated_diameter" : {
        "kilometers" : {
          "estimated_diameter_min" : 0.3841978911,
          "estimated_diameter_max" : 0.8590926012
        },
        "meters" : {
          "estimated_diameter_min" : 384.1978910643,
          "estimated_diameter_max" : 859.0926012318
        },
        "miles" : {
          "estimated_diameter_min" : 0.2387294278,
          "estimated_diameter_max" : 0.5338152287
        },
        "feet" : {
          "estimated_diameter_min" : 1260.4918089193,
          "estimated_diameter_max" : 2818.5453698252
        }
      },
      "is_potentially_hazardous_asteroid" : false,
      "close_approach_data" : [ {
        "close_approach_date" : "2001-04-08",
        "epoch_date_close_approach" : 986713200000,
        "relative_velocity" : {
          "kilometers_per_second" : "38.2996169154",
          "kilometers_per_hour" : "137878.6208954954",
          "miles_per_hour" : "85672.4130780927"
        },
        "miss_distance" : {
          "astronomical" : "0.4140252782",
          "lunar" : "161.0558319092",
          "kilometers" : "61937300",
          "miles" : "38486056"
        },
        "orbiting_body" : "Earth"
      } ],
      "orbital_data" : {
        "orbit_id" : "23",
        "orbit_determination_date" : "2017-09-19 06:48:16",
        "orbit_uncertainty" : "2",
        "minimum_orbit_intersection" : ".41255",
        "jupiter_tisserand_invariant" : "5.164",
        "epoch_osculation" : "2458000.5",
        "eccentricity" : ".4882591805304692",
        "semi_major_axis" : "1.108398943527283",
        "inclination" : "54.31121512367606",
        "ascending_node_longitude" : "195.5829111999242",
        "orbital_period" : "426.2285941455231",
        "perihelion_distance" : ".5672129836598141",
        "perihelion_argument" : "336.3292528540757",
        "aphelion_distance" : "1.649584903394752",
        "perihelion_time" : "2457964.324512889369",
        "mean_anomaly" : "30.55443848373244",
        "mean_motion" : ".84461719590096",
        "equinox" : "J2000"
      }
    }, {
      "links" : {
        "self" : "https://api.nasa.gov/neo/rest/v1/neo/3650848?api_key=t0TVs3DtDT2H8Oy2Zy8m2eVrNsAVKAexjcZXUckd"
      },
      "neo_reference_id" : "3650848",
      "name" : "(2013 TM127)",
      "nasa_jpl_url" : "http://ssd.jpl.nasa.gov/sbdb.cgi?sstr=3650848",
      "absolute_magnitude_h" : 26.6,
      "estimated_diameter" : {
        "kilometers" : {
          "estimated_diameter_min" : 0.0127219879,
          "estimated_diameter_max" : 0.0284472297
        },
        "meters" : {
          "estimated_diameter_min" : 12.7219878539,
          "estimated_diameter_max" : 28.4472296503
        },
        "miles" : {
          "estimated_diameter_min" : 0.0079050743,
          "estimated_diameter_max" : 0.0176762835
        },
        "feet" : {
          "estimated_diameter_min" : 41.7388066307,
          "estimated_diameter_max" : 93.330808926
        }
      },
      "is_potentially_hazardous_asteroid" : false,
      "close_approach_data" : [ {
        "close_approach_date" : "2001-04-08",
        "epoch_date_close_approach" : 986713200000,
        "relative_velocity" : {
          "kilometers_per_second" : "18.1777063557",
          "kilometers_per_hour" : "65439.7428806208",
          "miles_per_hour" : "40661.711347128"
        },
        "miss_distance" : {
          "astronomical" : "0.2191436862",
          "lunar" : "85.2468948364",
          "kilometers" : "32783430",
          "miles" : "20370678"
        },
        "orbiting_body" : "Earth"
      } ],
      "orbital_data" : {
        "orbit_id" : "4",
        "orbit_determination_date" : "2017-04-06 08:44:13",
        "orbit_uncertainty" : "7",
        "minimum_orbit_intersection" : ".0034055",
        "jupiter_tisserand_invariant" : "4.986",
        "epoch_osculation" : "2458000.5",
        "eccentricity" : ".4185428386006104",
        "semi_major_axis" : "1.272603802227049",
        "inclination" : "2.610858395041591",
        "ascending_node_longitude" : "204.4545518750578",
        "orbital_period" : "524.3705004526684",
        "perihelion_distance" : ".7399645944290102",
        "perihelion_argument" : "258.4593965613162",
        "aphelion_distance" : "1.805243010025088",
        "perihelion_time" : "2458208.420462944109",
        "mean_anomaly" : "217.2548101099068",
        "mean_motion" : ".6865374762486185",
        "equinox" : "J2000"
      }
    } ]
  }
}